<?xml version="1.0" encoding="UTF-8"?>
<kml xmlns="http://www.opengis.net/kml/2.2" xmlns:gx="http://www.google.com/kml/ext/2.2" xmlns:kml="http://www.opengis.net/kml/2.2" xmlns:atom="http://www.w3.org/2005/Atom">
<Document>
	<name>Tower.kml</name>
	<StyleMap id="m_ylw-pushpin">
		<Pair>
			<key>normal</key>
			<styleUrl>#s_ylw-pushpin</styleUrl>
		</Pair>
		<Pair>
			<key>highlight</key>
			<styleUrl>#s_ylw-pushpin_hl</styleUrl>
		</Pair>
	</StyleMap>
	<Style id="s_ylw-pushpin">
		<IconStyle>
			<scale>1.1</scale>
			<Icon>
				<href>http://maps.google.com/mapfiles/kml/pushpin/ylw-pushpin.png</href>
			</Icon>
			<hotSpot x="20" y="2" xunits="pixels" yunits="pixels"/>
		</IconStyle>
	</Style>
	<Style id="s_ylw-pushpin_hl">
		<IconStyle>
			<scale>1.3</scale>
			<Icon>
				<href>http://maps.google.com/mapfiles/kml/pushpin/ylw-pushpin.png</href>
			</Icon>
			<hotSpot x="20" y="2" xunits="pixels" yunits="pixels"/>
		</IconStyle>
	</Style>
	<Placemark>
		<name>Tower</name>
		<LookAt>
			<longitude>145.2027048719339</longitude>
			<latitude>-37.81736858857535</latitude>
			<altitude>0</altitude>
			<heading>0</heading>
			<tilt>45</tilt>
			<range>1000</range>
		</LookAt>
		<styleUrl>#m_ylw-pushpin</styleUrl>
		<Model id="model_1">
			<Location>
				<longitude>145.200654584392</longitude>
				<latitude>-37.81703792413025</latitude>
				<altitude>0</altitude>
			</Location>
			<Orientation>
				<heading>0</heading>
				<tilt>0</tilt>
				<roll>0</roll>
			</Orientation>
			<Scale>
				<x>0.1284001795925091</x>
				<y>0.1283996276004216</y>
				<z>0.1283999035964654</z>
			</Scale>
			<Link>
				<href>Cell_Tower/model.dae</href>
			</Link>
			<ResourceMap>
			</ResourceMap>
		</Model>
		<atom:link rel="app" href="https://www.google.com/earth/about/versions/#earth-pro" title="Google Earth Pro 7.3.6.10441"></atom:link>
	</Placemark>
</Document>
</kml>
